EUTELSAT 8 WEST B       
1 40875U 15039B   25291.26674263 -.00000072  00000+0  00000+0 0  9995
2 40875   0.0698  13.5297 0003850 196.2023 265.3113  1.00271748 37231
EUTELSAT 9B             
1 41310U 16005A   25291.27012264  .00000055  00000+0  00000+0 0  9992
2 41310   0.0579  60.1885 0003729 180.0870 252.9949  1.00270480 35690
EUTELSAT 65 WEST A      
1 41382U 16014A   25291.25538924 -.00000283  00000+0  00000+0 0  9999
2 41382   0.0939  53.7389 0002245 160.6416 199.3763  1.00270411 35106
EUTELSAT 117 WEST B     
1 41589U 16038B   25290.95974411 -.00000020  00000+0  00000+0 0  9994
2 41589   0.0113  73.9335 0000242  39.9083 141.3870  1.00273488 34233
EUTELSAT 172B           
1 42741U 17029B   25290.87429038 -.00000014  00000+0  00000+0 0  9990
2 42741   0.0172 177.6269 0000156 167.1658 168.5746  1.00271276 31304
EUTELSAT 7C             
1 44334U 19034B   25291.26968931  .00000042  00000+0  00000+0 0  9992
2 44334   0.0652 186.7219 0003134   4.3146 300.0746  1.00270479  4415
EUTELSAT 5 WEST B       
1 44624U 19067A   25291.26734929 -.00000049  00000+0  00000+0 0  9996
2 44624   0.0742  30.1889 0003211 181.9364 266.1403  1.00272341 22010
EUTELSAT KONNECT        
1 45027U 20005B   25291.26977597  .00000043  00000+0  00000+0 0  9991
2 45027   0.0683  90.3444 0001607 147.7678 253.2327  1.00269652 21902
